{
  "type": "FeatureCollection",
  "features": [
    {
      "type": "Feature",
      "properties": {
        "norad_id": 33835,
        "name": "COSMOS 2251 DEB",
        "group": "cosmos-2251-debris",
        "lat": 1.8376521915619835,
        "lon": -75.362275556706,
        "alt_km": 651.6211420033451,
        "timestamp": "2025-12-10T14:53:37.480874+00:00",
        "meta_object_name": "COSMOS 2251 DEB",
        "meta_object_id": "1993-036CC",
        "meta_epoch": "2025-12-09T19:03:59.545152",
        "meta_mean_motion": 14.62197622,
        "meta_eccentricity": 0.00549753,
        "meta_inclination": 74.0575,
        "meta_ra_of_asc_node": 106.7425,
        "meta_arg_of_pericenter": 161.1027,
        "meta_mean_anomaly": 349.7462,
        "meta_ephemeris_type": 0,
        "meta_classification_type": "U",
        "meta_norad_cat_id": 33835,
        "meta_element_set_no": 999,
        "meta_rev_at_epoch": 88746,
        "meta_bstar": 0.0018513528,
        "meta_mean_motion_dot": 9.51e-05,
        "meta_mean_motion_ddot": 0,
        "tle_line1": "1 33835U 93036CC  25343.79443918  .00009510  00000+0  18514-2 0  9990",
        "tle_line2": "2 33835  74.0575 106.7425 0054975 161.1027 349.7462 14.62197622887463"
      },
      "geometry": {
        "type": "Point",
        "coordinates": [
          -75.362275556706,
          1.8376521915619835
        ]
      }
    },
    {
      "type": "Feature",
      "properties": {
        "norad_id": 33836,
        "name": "COSMOS 2251 DEB",
        "group": "cosmos-2251-debris",
        "lat": 63.78033153338082,
        "lon": -61.22403402302251,
        "alt_km": 613.6148653069531,
        "timestamp": "2025-12-10T14:53:37.480883+00:00",
        "meta_object_name": "COSMOS 2251 DEB",
        "meta_object_id": "1993-036CD",
        "meta_epoch": "2025-12-10T05:31:46.273152",
        "meta_mean_motion": 14.79539243,
        "meta_eccentricity": 0.00225321,
        "meta_inclination": 73.9971,
        "meta_ra_of_asc_node": 263.9018,
        "meta_arg_of_pericenter": 118.0444,
        "meta_mean_anomaly": 33.7928,
        "meta_ephemeris_type": 0,
        "meta_classification_type": "U",
        "meta_norad_cat_id": 33836,
        "meta_element_set_no": 999,
        "meta_rev_at_epoch": 64051,
        "meta_bstar": 0.0020515237,
        "meta_mean_motion_dot": 0.0001542,
        "meta_mean_motion_ddot": 0,
        "tle_line1": "1 33836U 93036CD  25344.23039668  .00015420  00000+0  20515-2 0  9995",
        "tle_line2": "2 33836  73.9971 263.9018 0022532 118.0444  33.7928 14.79539243640511"
      },
      "geometry": {
        "type": "Point",
        "coordinates": [
          -61.22403402302251,
          63.78033153338082
        ]
      }
    },
    {
      "type": "Feature",
      "properties": {
        "norad_id": 33837,
        "name": "COSMOS 2251 DEB",
        "group": "cosmos-2251-debris",
        "lat": -73.91172143872033,
        "lon": -36.690174114479994,
        "alt_km": 705.5640447904434,
        "timestamp": "2025-12-10T14:53:37.480892+00:00",
        "meta_object_name": "COSMOS 2251 DEB",
        "meta_object_id": "1993-036CE",
        "meta_epoch": "2025-12-10T07:02:18.568608",
        "meta_mean_motion": 14.50693306,
        "meta_eccentricity": 0.0035851,
        "meta_inclination": 74.0132,
        "meta_ra_of_asc_node": 60.2039,
        "meta_arg_of_pericenter": 282.3314,
        "meta_mean_anomaly": 77.3834,
        "meta_ephemeris_type": 0,
        "meta_classification_type": "U",
        "meta_norad_cat_id": 33837,
        "meta_element_set_no": 999,
        "meta_rev_at_epoch": 88760,
        "meta_bstar": 0.00043260364,
        "meta_mean_motion_dot": 1.686e-05,
        "meta_mean_motion_ddot": 0,
        "tle_line1": "1 33837U 93036CE  25344.29327047  .00001686  00000+0  43260-3 0  9995",
        "tle_line2": "2 33837  74.0132  60.2039 0035851 282.3314  77.3834 14.50693306887606"
      },
      "geometry": {
        "type": "Point",
        "coordinates": [
          -36.690174114479994,
          -73.91172143872033
        ]
      }
    },
    {
      "type": "Feature",
      "properties": {
        "norad_id": 33838,
        "name": "COSMOS 2251 DEB",
        "group": "cosmos-2251-debris",
        "lat": 20.607209529858686,
        "lon": -32.39653837302943,
        "alt_km": 739.617363603199,
        "timestamp": "2025-12-10T14:53:37.480901+00:00",
        "meta_object_name": "COSMOS 2251 DEB",
        "meta_object_id": "1993-036CF",
        "meta_epoch": "2025-12-10T05:02:41.809632",
        "meta_mean_motion": 14.48350902,
        "meta_eccentricity": 0.00274684,
        "meta_inclination": 74.0364,
        "meta_ra_of_asc_node": 154.5506,
        "meta_arg_of_pericenter": 276.7843,
        "meta_mean_anomaly": 263.1081,
        "meta_ephemeris_type": 0,
        "meta_classification_type": "U",
        "meta_norad_cat_id": 33838,
        "meta_element_set_no": 999,
        "meta_rev_at_epoch": 88532,
        "meta_bstar": 0.0006250147,
        "meta_mean_motion_dot": 2.322e-05,
        "meta_mean_motion_ddot": 0,
        "tle_line1": "1 33838U 93036CF  25344.21020613  .00002322  00000+0  62501-3 0  9994",
        "tle_line2": "2 33838  74.0364 154.5506 0027468 276.7843 263.1081 14.48350902885324"
      },
      "geometry": {
        "type": "Point",
        "coordinates": [
          -32.39653837302943,
          20.607209529858686
        ]
      }
    },
    {
      "type": "Feature",
      "properties": {
        "norad_id": 33839,
        "name": "COSMOS 2251 DEB",
        "group": "cosmos-2251-debris",
        "lat": -35.64733900195664,
        "lon": -161.29221762578976,
        "alt_km": 624.8920768484641,
        "timestamp": "2025-12-10T14:53:37.480910+00:00",
        "meta_object_name": "COSMOS 2251 DEB",
        "meta_object_id": "1993-036CG",
        "meta_epoch": "2025-12-10T02:39:10.870272",
        "meta_mean_motion": 14.64409066,
        "meta_eccentricity": 0.00850434,
        "meta_inclination": 74.039,
        "meta_ra_of_asc_node": 211.5319,
        "meta_arg_of_pericenter": 324.2198,
        "meta_mean_anomaly": 190.8641,
        "meta_ephemeris_type": 0,
        "meta_classification_type": "U",
        "meta_norad_cat_id": 33839,
        "meta_element_set_no": 999,
        "meta_rev_at_epoch": 89541,
        "meta_bstar": 0.00034371631,
        "meta_mean_motion_dot": 1.883e-05,
        "meta_mean_motion_ddot": 0,
        "tle_line1": "1 33839U 93036CG  25344.11054248  .00001883  00000+0  34372-3 0  9991",
        "tle_line2": "2 33839  74.0390 211.5319 0085043 324.2198 190.8641 14.64409066895418"
      },
      "geometry": {
        "type": "Point",
        "coordinates": [
          -161.29221762578976,
          -35.64733900195664
        ]
      }
    },
    {
      "type": "Feature",
      "properties": {
        "norad_id": 33841,
        "name": "COSMOS 2251 DEB",
        "group": "cosmos-2251-debris",
        "lat": -68.65075966529119,
        "lon": 149.0192442131247,
        "alt_km": 776.7844527775787,
        "timestamp": "2025-12-10T14:53:37.480920+00:00",
        "meta_object_name": "COSMOS 2251 DEB",
        "meta_object_id": "1993-036CJ",
        "meta_epoch": "2025-12-10T07:46:17.469984",
        "meta_mean_motion": 14.37855141,
        "meta_eccentricity": 0.00204266,
        "meta_inclination": 74.0377,
        "meta_ra_of_asc_node": 282.4898,
        "meta_arg_of_pericenter": 3.3922,
        "meta_mean_anomaly": 156.9543,
        "meta_ephemeris_type": 0,
        "meta_classification_type": "U",
        "meta_norad_cat_id": 33841,
        "meta_element_set_no": 999,
        "meta_rev_at_epoch": 88079,
        "meta_bstar": 0.00041232181,
        "meta_mean_motion_dot": 1.22e-05,
        "meta_mean_motion_ddot": 0,
        "tle_line1": "1 33841U 93036CJ  25344.32381331  .00001220  00000+0  41232-3 0  9991",
        "tle_line2": "2 33841  74.0377 282.4898 0020426   3.3922 156.9543 14.37855141880797"
      },
      "geometry": {
        "type": "Point",
        "coordinates": [
          149.0192442131247,
          -68.65075966529119
        ]
      }
    },
    {
      "type": "Feature",
      "properties": {
        "norad_id": 33842,
        "name": "COSMOS 2251 DEB",
        "group": "cosmos-2251-debris",
        "lat": 61.37511166259512,
        "lon": 11.94545075795312,
        "alt_km": 770.0275940453221,
        "timestamp": "2025-12-10T14:53:37.480929+00:00",
        "meta_object_name": "COSMOS 2251 DEB",
        "meta_object_id": "1993-036CK",
        "meta_epoch": "2025-12-10T02:43:04.342944",
        "meta_mean_motion": 14.42688865,
        "meta_eccentricity": 0.0047223,
        "meta_inclination": 74.0331,
        "meta_ra_of_asc_node": 224.5268,
        "meta_arg_of_pericenter": 332.3721,
        "meta_mean_anomaly": 27.4926,
        "meta_ephemeris_type": 0,
        "meta_classification_type": "U",
        "meta_norad_cat_id": 33842,
        "meta_element_set_no": 999,
        "meta_rev_at_epoch": 88299,
        "meta_bstar": 0.0004485661,
        "meta_mean_motion_dot": 1.486e-05,
        "meta_mean_motion_ddot": 0,
        "tle_line1": "1 33842U 93036CK  25344.11324471  .00001486  00000+0  44857-3 0  9991",
        "tle_line2": "2 33842  74.0331 224.5268 0047223 332.3721  27.4926 14.42688865882996"
      },
      "geometry": {
        "type": "Point",
        "coordinates": [
          11.94545075795312,
          61.37511166259512
        ]
      }
    }
  ]
}